NORAD_CAT_ID,OBJECT_NAME,OBJECT_TYPE,EPOCH,MEAN_MOTION,ECCENTRICITY,INCLINATION,RA_OF_ASC_NODE,ARG_OF_PERICENTER,MEAN_ANOMALY,BSTAR,MEAN_MOTION_DOT,MEAN_MOTION_DDOT,TLE_LINE0,TLE_LINE1,TLE_LINE2,SEMIMAJOR_AXIS,PERIOD,APOGEE,PERIGEE,DECAYED
53794.0,STARLINK-4730,PAYLOAD,2023-01-09 10:10:20,15.08846142,0.0002868,53.2175,60.0627,41.8958,318.2253,7.9247e-05,9.73e-06,0.0,0 STARLINK-4730,1 53794U 22111X   23009.42385391  .00000973  00000-0  79247-4 0  9996,2 53794  53.2175  60.0627 0002868  41.8958 318.2253 15.08846142 19286,6917.861999999999,95.437,541.711,537.743,0.0
53794.0,STARLINK-4730,PAYLOAD,2023-01-09 13:21:07,15.08843392,0.0002551,53.2189,59.4702,31.039,329.0753,8.4705e-05,1.06e-05,0.0,0 STARLINK-4730,1 53794U 22111X   23009.55633610  .00001060  00000-0  84705-4 0  9993,2 53794  53.2189  59.4702 0002551  31.0390 329.0753 15.08843392 19309,6917.87,95.437,541.5,537.97,0.0
53794.0,STARLINK-4730,PAYLOAD,2023-01-10 10:01:08,15.08835834,0.0002458,53.2179,55.6041,24.6207,335.4903,2.0812e-05,4.3e-07,0.0,0 STARLINK-4730,1 53794U 22111X   23010.41746298  .00000043  00000-0  20812-4 0  9996,2 53794  53.2179  55.6041 0002458  24.6207 335.4903 15.08835834 18638,6917.893,95.438,541.4590000000002,538.058,0.0
53794.0,STARLINK-4730,PAYLOAD,2023-01-10 13:11:55,15.08832363,0.0002508,53.218,55.0105,29.845,330.2685,-1.0762e-05,-4.6e-06,0.0,0 STARLINK-4730,1 53794U 22111X   23010.54994627 -.00000460  00000-0 -10762-4 0  9999,2 53794  53.2180  55.0105 0002508  29.8450 330.2685 15.08832363 19453,6917.904,95.438,541.504,538.034,0.0
53794.0,STARLINK-4730,PAYLOAD,2023-01-10 19:33:27,15.08833028,0.0002528,53.2182,53.8211,30.596,329.5179,1.4831e-05,-5.2e-07,0.0,0 STARLINK-4730,1 53794U 22111X   23010.81490611 -.00000052  00000-0  14831-4 0  9990,2 53794  53.2182  53.8211 0002528  30.5960 329.5179 15.08833028 19498,6917.901999999999,95.438,541.516,538.018,0.0
53794.0,STARLINK-4730,PAYLOAD,2023-01-11 09:51:55,15.08845874,0.0002858,53.2158,51.1414,19.7908,340.3195,0.00011236,1.5e-05,0.0,0 STARLINK-4730,1 53794U 22111X   23011.41105512  .00001500  00000-0  11236-3 0  9993,2 53794  53.2158  51.1414 0002858  19.7908 340.3195 15.08845874 18786,6917.861999999999,95.437,541.705,537.75,0.0
53794.0,STARLINK-4730,PAYLOAD,2023-01-11 19:24:13,15.08849512,0.0002806,53.2166,49.3576,27.8068,332.3073,0.00026284,3.898e-05,0.0,0 STARLINK-4730,1 53794U 22111X   23011.80849300  .00003898  00000-0  26284-3 0  9997,2 53794  53.2166  49.3576 0002806  27.8068 332.3073 15.08849512 19648,6917.851,95.437,541.6569999999998,537.775,0.0
53794.0,STARLINK-4730,PAYLOAD,2023-01-12 19:15:00,15.08842568,0.0002577,53.218,44.8987,31.071,329.0434,7.8123e-05,9.55e-06,0.0,0 STARLINK-4730,1 53794U 22111X   23012.80209051  .00000955  00000-0  78123-4 0  9992,2 53794  53.2180  44.8987 0002577  31.0710 329.0434 15.08842568 18991,6917.873000000001,95.437,541.52,537.955,0.0
53794.0,STARLINK-4730,PAYLOAD,2023-01-13 00:01:10,15.08816896,0.0002447,53.2156,44.0044,34.4901,325.6249,-0.00055748,-9.144e-05,0.0,0 STARLINK-4730,1 53794U 22111X   23013.00081860 -.00009144  00000-0 -55748-3 0  9999,2 53794  53.2156  44.0044 0002447  34.4901 325.6249 15.08816896 19021,6917.951,95.439,541.509,538.123,0.0
53794.0,STARLINK-4730,PAYLOAD,2023-01-13 09:33:29,15.08823714,0.000248,53.2171,42.223,37.7939,322.3227,-0.0002437,-4.163e-05,0.0,0 STARLINK-4730,1 53794U 22111X   23013.39826196 -.00004163  00000-0 -24370-3 0  9993,2 53794  53.2171  42.2230 0002480  37.7939 322.3227 15.08823714 19082,6917.93,95.439,541.511,538.08,0.0
53794.0,STARLINK-4730,PAYLOAD,2023-01-13 19:05:49,15.0881468,0.0002528999999999,53.2171,40.4395,43.5769,316.5423,-0.00024803,-4.231e-05,0.0,0 STARLINK-4730,1 53794U 22111X   23013.79570980 -.00004231  00000-0 -24803-3 0  9991,2 53794  53.2171  40.4395 0002529  43.5769 316.5423 15.08814680 19944,6917.9580000000005,95.439,541.572,538.073,0.0
53794.0,STARLINK-4730,PAYLOAD,2023-01-14 10:59:40,15.08851923,0.0002253,53.2177,37.4639,48.1764,311.942,0.0014946,0.00023587,0.0,0 STARLINK-4730,1 53794U 22111X   23014.45811228  .00023587  00000-0  14946-2 0  9997,2 53794  53.2177  37.4639 0002253  48.1764 311.9420 15.08851923 19247,6917.844,95.437,541.268,538.15,0.0
53794.0,STARLINK-4730,PAYLOAD,2023-01-14 18:56:36,15.08837457,0.0002335999999999,53.2187,35.9786,53.9403,306.1805,0.0006401,9.913e-05,0.0,0 STARLINK-4730,1 53794U 22111X   23014.78931683  .00009913  00000-0  64010-3 0  9996,2 53794  53.2187  35.9786 0002336  53.9403 306.1805 15.08837457 19294,6917.888000000001,95.438,541.369,538.137,0.0
53794.0,STARLINK-4730,PAYLOAD,2023-01-15 07:39:42,15.08848485,0.0002151999999999,53.2182,33.5997,52.8772,307.2416,0.00086535,0.00013514,0.0,0 STARLINK-4730,1 53794U 22111X   23015.31923752  .00013514  00000-0  86535-3 0  9992,2 53794  53.2182  33.5997 0002152  52.8772 307.2416 15.08848485 20172,6917.854,95.437,541.2080000000001,538.231,0.0
53794.0,STARLINK-4730,PAYLOAD,2023-01-16 07:30:28,15.08869736,0.0002229,53.2191,29.1369,61.738,298.3837,0.0012301999999999,0.00019361,0.0,0 STARLINK-4730,1 53794U 22111X   23016.31283078  .00019361  00000-0  12302-2 0  9999,2 53794  53.2191  29.1369 0002229  61.7380 298.3837 15.08869736 19521,6917.789000000001,95.436,541.196,538.113,0.0
53794.0,STARLINK-4730,PAYLOAD,2023-01-16 10:41:14,15.08874719,0.0002139,53.2191,28.5432,61.3728,298.7479,0.0011003,0.00017283,0.0,0 STARLINK-4730,1 53794U 22111X   23016.44530744  .00017283  00000-0  11003-2 0  9996,2 53794  53.2191  28.5432 0002139  61.3728 298.7479 15.08874719 20342,6917.774,95.435,541.119,538.16,0.0
53794.0,STARLINK-4730,PAYLOAD,2023-01-17 00:59:43,15.08843789,0.000231,53.219,25.8687,60.5851,299.5371,0.00037319,5.657e-05,0.0,0 STARLINK-4730,1 53794U 22111X   23017.04147576  .00005657  00000-0  37319-3 0  9991,2 53794  53.2190  25.8687 0002310  60.5851 299.5371 15.08843789 19635,6917.869000000001,95.437,541.332,538.136,0.0
53794.0,STARLINK-4730,PAYLOAD,2023-01-17 07:21:16,15.0883453,0.0001626,53.2192,24.6792,65.9128,294.2034,0.00010025,1.308e-05,0.0,0 STARLINK-4730,1 53794U 22111X   23017.30643674  .00001308  00000-0  10025-3 0  9994,2 53794  53.2192  24.6792 0001626  65.9128 294.2034 15.08834530 19672,6917.897,95.438,540.887,538.637,0.0
53794.0,STARLINK-4730,PAYLOAD,2023-01-17 16:53:35,15.08833532,0.0001728,53.2177,22.8952,73.5701,286.5481,0.00046684,7.148e-05,0.0,0 STARLINK-4730,1 53794U 22111X   23017.70388060  .00007148  00000-0  46684-3 0  9991,2 53794  53.2177  22.8952 0001728  73.5701 286.5481 15.08833532 20536,6917.9,95.438,540.961,538.57,0.0
53794.0,STARLINK-4730,PAYLOAD,2023-01-18 10:22:49,15.08852486,0.0002084,53.2197,19.6257,88.9523,271.1708,0.0010855,0.00017036,0.0,0 STARLINK-4730,1 53794U 22111X   23018.43252059  .00017036  00000-0  10855-2 0  9997,2 53794  53.2197  19.6257 0002084  88.9523 271.1708 15.08852486 20641,6917.842,95.437,541.149,538.266,0.0
53794.0,STARLINK-4730,PAYLOAD,2023-01-18 16:44:22,15.08849072,0.0001703,53.2175,18.4325,74.7573,285.3607,0.0006219999999999,9.627e-05,0.0,0 STARLINK-4730,1 53794U 22111X   23018.69748027  .00009627  00000-0  62200-3 0  9999,2 53794  53.2175  18.4325 0001703  74.7573 285.3607 15.08849072 19881,6917.853,95.437,540.896,538.54,0.0
53794.0,STARLINK-4730,PAYLOAD,2023-01-19 13:24:21,15.08869631,0.0001696,53.218,14.569,87.5374,272.5812,0.00060452,9.354e-05,0.0,0 STARLINK-4730,1 53794U 22111X   23019.55858567  .00009354  00000-0  60452-3 0  9990,2 53794  53.2180  14.5690 0001696  87.5374 272.5812 15.08869631 20815,6917.79,95.436,540.828,538.482,0.0
53794.0,STARLINK-4730,PAYLOAD,2023-01-19 16:35:08,15.0884108,0.0001703,53.2175,13.9711,91.4622,268.6565,4.0286e-05,3.53e-06,0.0,0 STARLINK-4730,1 53794U 22111X   23019.69107630  .00000353  00000-0  40286-4 0  9997,2 53794  53.2175  13.9711 0001703  91.4622 268.6565 15.08841080 20038,6917.877,95.437,540.92,538.564,0.0
53794.0,STARLINK-4730,PAYLOAD,2023-01-19 22:56:42,15.08827881,0.0001676999999999,53.2193,12.7881,101.7813,258.3367,-0.00021435,-3.697e-05,0.0,0 STARLINK-4730,1 53794U 22111X   23019.95604313 -.00003697  00000-0 -21435-3 0  9996,2 53794  53.2193  12.7881 0001677 101.7813 258.3367 15.08827881 20073,6917.917,95.438,540.943,538.622,0.0
53794.0,STARLINK-4730,PAYLOAD,2023-01-20 08:29:00,15.08841983,0.0001672,53.218,11.0022,99.8189,260.2992,9.8673e-05,1.283e-05,0.0,0 STARLINK-4730,1 53794U 22111X   23020.35347867  .00001283  00000-0  98673-4 0  9996,2 53794  53.2180  11.0022 0001672  99.8189 260.2992 15.08841983 20138,6917.874,95.437,540.896,538.5830000000001,0.0
53794.0,STARLINK-4730,PAYLOAD,2023-01-20 22:47:29,15.08830262,0.0001739,53.2168,8.3243,112.4069,247.7108,0.00013983,1.937e-05,0.0,0 STARLINK-4730,1 53794U 22111X   23020.94964527  .00001937  00000-0  13983-3 0  9995,2 53794  53.2168   8.3243 0001739 112.4069 247.7108 15.08830262 20228,6917.91,95.438,540.9780000000001,538.572,0.0
53794.0,STARLINK-4730,PAYLOAD,2023-01-21 05:09:01,15.08847351,0.0001726,53.2182,7.1347,106.7256,253.3926,0.00049066,7.531e-05,0.0,0 STARLINK-4730,1 53794U 22111X   23021.21460322  .00007531  00000-0  49066-3 0  9997,2 53794  53.2182   7.1347 0001726 106.7256 253.3926 15.08847351 20268,6917.858,95.437,540.9169999999999,538.529,0.0
53794.0,STARLINK-4730,PAYLOAD,2023-01-21 16:16:44,15.08844364,0.0001843,53.2188,5.0535,98.6969,261.4232,0.00075594,0.00011765,0.0,0 STARLINK-4730,1 53794U 22111X   23021.67828880  .00011765  00000-0  75594-3 0  9993,2 53794  53.2188   5.0535 0001843  98.6969 261.4232 15.08844364 20339,6917.866999999999,95.437,541.007,538.457,0.0
53794.0,STARLINK-4730,PAYLOAD,2023-01-22 17:42:54,15.0884052,0.0001655,53.2184,0.2942,109.6675,250.4496,0.00016776,2.383e-05,0.0,0 STARLINK-4730,1 53794U 22111X   23022.73812624  .00002383  00000-0  16776-3 0  9993,2 53794  53.2184   0.2942 0001655 109.6675 250.4496 15.08840520 20499,6917.879,95.438,540.889,538.599,0.0
